start=new Date('2021-10-25T00:00:00.000Z').valueOf();
sats=[{"OBJECT_TYPE":"PAYLOAD","ECCENTRICITY":"0.00020370","SEMIMAJOR_AXIS":"6925.318","RA_OF_ASC_NODE":"135.2283","ELEMENT_SET_NO":"999","FILE":"3182768","DECAY_DATE":null,"REF_FRAME":"TEME","MEAN_MOTION_DDOT":"0.0000000000000","SITE":"AFETR","TLE_LINE1":"1 45376U 20019S   21297.82520180  .00002400  00000-0  17995-3 0  9994","OBJECT_NAME":"STARLINK-1304","INCLINATION":"53.0541","PERIAPSIS":"545.772","PERIOD":"95.592","NORAD_CAT_ID":"45376","RCS_SIZE":"LARGE","REV_AT_EPOCH":"8904","MEAN_MOTION":"15.06409988","EPOCH":"2021-10-24T19:48:17.435520","EPHEMERIS_TYPE":"0","CENTER_NAME":"EARTH","TLE_LINE2":"2 45376  53.0541 135.2283 0002037  79.3765 280.7453 15.06409988 89048","OBJECT_ID":"2020-019S","MEAN_ELEMENT_THEORY":"SGP4","ARG_OF_PERICENTER":"79.3765","MEAN_MOTION_DOT":"0.00002400","MEAN_ANOMALY":"280.7453","GP_ID":"188103520","COUNTRY_CODE":"US","CLASSIFICATION_TYPE":"U","TIME_SYSTEM":"UTC","LAUNCH_DATE":"2020-03-18","BSTAR":"0.00017995000000","APOAPSIS":"548.594"},{"INCLINATION":"53.0530","OBJECT_NAME":"STARLINK-1305","TLE_LINE1":"1 45377U 20019T   21297.85101982  .00002802  00000-0  20697-3 0  9992","RCS_SIZE":"LARGE","PERIOD":"95.592","NORAD_CAT_ID":"45377","PERIAPSIS":"545.982","OBJECT_TYPE":"PAYLOAD","MEAN_MOTION_DDOT":"0.0000000000000","SITE":"AFETR","FILE":"3182768","REF_FRAME":"TEME","DECAY_DATE":null,"RA_OF_ASC_NODE":"135.1124","SEMIMAJOR_AXIS":"6925.351","ELEMENT_SET_NO":"999","ECCENTRICITY":"0.00017820","TIME_SYSTEM":"UTC","MEAN_MOTION_DOT":"0.00002802","ARG_OF_PERICENTER":"79.6947","CLASSIFICATION_TYPE":"U","GP_ID":"188103771","COUNTRY_CODE":"US","MEAN_ANOMALY":"280.4243","TLE_LINE2":"2 45377  53.0530 135.1124 0001782  79.6947 280.4243 15.06399287 89056","OBJECT_ID":"2020-019T","MEAN_ELEMENT_THEORY":"SGP4","EPHEMERIS_TYPE":"0","CENTER_NAME":"EARTH","APOAPSIS":"548.450","BSTAR":"0.00020697000000","LAUNCH_DATE":"2020-03-18","REV_AT_EPOCH":"8905","EPOCH":"2021-10-24T20:25:28.112448","MEAN_MOTION":"15.06399287"},{"SEMIMAJOR_AXIS":"6925.362","RA_OF_ASC_NODE":"135.1640","ELEMENT_SET_NO":"999","ECCENTRICITY":"0.00020430","MEAN_MOTION_DDOT":"0.0000000000000","SITE":"AFETR","FILE":"3182768","DECAY_DATE":null,"REF_FRAME":"TEME","OBJECT_TYPE":"PAYLOAD","PERIOD":"95.592","NORAD_CAT_ID":"45378","PERIAPSIS":"545.812","RCS_SIZE":"LARGE","TLE_LINE1":"1 45378U 20019U   21297.83994678  .00000797  00000-0  72428-4 0  9994","INCLINATION":"53.0543","OBJECT_NAME":"STARLINK-1310","MEAN_MOTION":"15.06395625","EPOCH":"2021-10-24T20:09:31.401792","REV_AT_EPOCH":"8905","LAUNCH_DATE":"2020-03-18","APOAPSIS":"548.642","BSTAR":"0.00007242800000","TLE_LINE2":"2 45378  53.0543 135.1640 0002043  80.3004 279.8216 15.06395625 89052","OBJECT_ID":"2020-019U","MEAN_ELEMENT_THEORY":"SGP4","EPHEMERIS_TYPE":"0","CENTER_NAME":"EARTH","TIME_SYSTEM":"UTC","MEAN_MOTION_DOT":"0.00000797","ARG_OF_PERICENTER":"80.3004","CLASSIFICATION_TYPE":"U","GP_ID":"188104022","COUNTRY_CODE":"US","MEAN_ANOMALY":"279.8216"},{"EPHEMERIS_TYPE":"0","CENTER_NAME":"EARTH","TLE_LINE2":"2 45379  53.0531 135.4463 0001926  72.7202 287.3998 15.06393950 89049","MEAN_ELEMENT_THEORY":"SGP4","OBJECT_ID":"2020-019V","MEAN_MOTION_DOT":"0.00000369","ARG_OF_PERICENTER":"72.7202","GP_ID":"188102770","MEAN_ANOMALY":"287.3998","COUNTRY_CODE":"US","CLASSIFICATION_TYPE":"U","TIME_SYSTEM":"UTC","LAUNCH_DATE":"2020-03-18","BSTAR":"0.00004368600000","APOAPSIS":"548.566","REV_AT_EPOCH":"8904","MEAN_MOTION":"15.06393950","EPOCH":"2021-10-24T18:39:18.535104","TLE_LINE1":"1 45379U 20019V   21297.77729786  .00000369  00000-0  43686-4 0  9993","OBJECT_NAME":"STARLINK-1319","INCLINATION":"53.0531","PERIAPSIS":"545.898","PERIOD":"95.593","NORAD_CAT_ID":"45379","RCS_SIZE":"LARGE","OBJECT_TYPE":"PAYLOAD","ECCENTRICITY":"0.00019260","SEMIMAJOR_AXIS":"6925.367","RA_OF_ASC_NODE":"135.4463","ELEMENT_SET_NO":"999","FILE":"3182768","DECAY_DATE":null,"REF_FRAME":"TEME","MEAN_MOTION_DDOT":"0.0000000000000","SITE":"AFETR"},{"OBJECT_TYPE":"PAYLOAD","REF_FRAME":"TEME","DECAY_DATE":null,"FILE":"3182768","SITE":"AFETR","MEAN_MOTION_DDOT":"0.0000000000000","ECCENTRICITY":"0.00016400","SEMIMAJOR_AXIS":"6925.367","ELEMENT_SET_NO":"999","RA_OF_ASC_NODE":"115.4551","OBJECT_NAME":"STARLINK-1207","INCLINATION":"53.0546","TLE_LINE1":"1 45380U 20019W   21297.77543524 -.00000920  00000-0 -42877-4 0  9995","RCS_SIZE":"LARGE","PERIAPSIS":"546.096","NORAD_CAT_ID":"45380","PERIOD":"95.593","REV_AT_EPOCH":"8931","EPOCH":"2021-10-24T18:36:37.604736","MEAN_MOTION":"15.06394130","GP_ID":"188103020","CLASSIFICATION_TYPE":"U","COUNTRY_CODE":"US","MEAN_ANOMALY":"281.0997","MEAN_MOTION_DOT":"-0.00000920","ARG_OF_PERICENTER":"79.0177","TIME_SYSTEM":"UTC","CENTER_NAME":"EARTH","EPHEMERIS_TYPE":"0","OBJECT_ID":"2020-019W","MEAN_ELEMENT_THEORY":"SGP4","TLE_LINE2":"2 45380  53.0546 115.4551 0001640  79.0177 281.0997 15.06394130 89318","BSTAR":"-0.00004287700000","APOAPSIS":"548.367","LAUNCH_DATE":"2020-03-18"},{"MEAN_MOTION":"15.06400704","EPOCH":"2021-10-24T18:52:33.477312","REV_AT_EPOCH":"8931","LAUNCH_DATE":"2020-03-18","APOAPSIS":"548.389","BSTAR":"0.00010166000000","TLE_LINE2":"2 45381  53.0527 115.4003 0001700  76.3657 283.7521 15.06400704 89317","OBJECT_ID":"2020-019X","MEAN_ELEMENT_THEORY":"SGP4","EPHEMERIS_TYPE":"0","CENTER_NAME":"EARTH","TIME_SYSTEM":"UTC","ARG_OF_PERICENTER":"76.3657","MEAN_MOTION_DOT":"0.00001233","GP_ID":"188104272","COUNTRY_CODE":"US","CLASSIFICATION_TYPE":"U","MEAN_ANOMALY":"283.7521","SEMIMAJOR_AXIS":"6925.346","ELEMENT_SET_NO":"999","RA_OF_ASC_NODE":"115.4003","ECCENTRICITY":"0.00017000","MEAN_MOTION_DDOT":"0.0000000000000","SITE":"AFETR","FILE":"3182768","REF_FRAME":"TEME","DECAY_DATE":null,"OBJECT_TYPE":"PAYLOAD","PERIOD":"95.592","NORAD_CAT_ID":"45381","PERIAPSIS":"546.034","RCS_SIZE":"LARGE","TLE_LINE1":"1 45381U 20019X   21297.78649858  .00001233  00000-0  10166-3 0  9995","INCLINATION":"53.0527","OBJECT_NAME":"STARLINK-1258"},{"REV_AT_EPOCH":"8913","EPOCH":"2021-10-24T18:20:43.237248","MEAN_MOTION":"15.06403626","TIME_SYSTEM":"UTC","ARG_OF_PERICENTER":"71.9582","MEAN_MOTION_DOT":"0.00003039","COUNTRY_CODE":"US","GP_ID":"188104523","CLASSIFICATION_TYPE":"U","MEAN_ANOMALY":"288.1584","TLE_LINE2":"2 45382  53.0543 115.5042 0001630  71.9582 288.1584 15.06403626 89134","OBJECT_ID":"2020-019Y","MEAN_ELEMENT_THEORY":"SGP4","EPHEMERIS_TYPE":"0","CENTER_NAME":"EARTH","APOAPSIS":"548.331","BSTAR":"0.00022284000000","LAUNCH_DATE":"2020-03-18","OBJECT_TYPE":"PAYLOAD","MEAN_MOTION_DDOT":"0.0000000000000","SITE":"AFETR","FILE":"3182768","REF_FRAME":"TEME","DECAY_DATE":null,"SEMIMAJOR_AXIS":"6925.337","ELEMENT_SET_NO":"999","RA_OF_ASC_NODE":"115.5042","ECCENTRICITY":"0.00016300","INCLINATION":"53.0543","OBJECT_NAME":"STARLINK-1264","TLE_LINE1":"1 45382U 20019Y   21297.76438932  .00003039  00000-0  22284-3 0  9993","RCS_SIZE":"LARGE","PERIOD":"95.592","NORAD_CAT_ID":"45382","PERIAPSIS":"546.074"},{"RCS_SIZE":"LARGE","PERIOD":"95.592","NORAD_CAT_ID":"45383","PERIAPSIS":"545.970","INCLINATION":"53.0527","OBJECT_NAME":"STARLINK-1266","TLE_LINE1":"1 45383U 20019Z   21297.77913934  .00000740  00000-0  68616-4 0  9991","MEAN_MOTION_DDOT":"0.0000000000000","SITE":"AFETR","FILE":"3182768","REF_FRAME":"TEME","DECAY_DATE":null,"RA_OF_ASC_NODE":"115.4313","SEMIMAJOR_AXIS":"6925.360","ELEMENT_SET_NO":"999","ECCENTRICITY":"0.00018110","OBJECT_TYPE":"PAYLOAD","APOAPSIS":"548.479","BSTAR":"0.00006861600000","LAUNCH_DATE":"2020-03-18","TIME_SYSTEM":"UTC","ARG_OF_PERICENTER":"82.9112","MEAN_MOTION_DOT":"0.00000740","CLASSIFICATION_TYPE":"U","GP_ID":"188103271","COUNTRY_CODE":"US","MEAN_ANOMALY":"277.2083","TLE_LINE2":"2 45383  53.0527 115.4313 0001811  82.9112 277.2083 15.06396403 89316","MEAN_ELEMENT_THEORY":"SGP4","OBJECT_ID":"2020-019Z","EPHEMERIS_TYPE":"0","CENTER_NAME":"EARTH","EPOCH":"2021-10-24T18:41:57.638976","MEAN_MOTION":"15.06396403","REV_AT_EPOCH":"8931"},{"INCLINATION":"53.0548","OBJECT_NAME":"STARLINK-1267","TLE_LINE1":"1 45384U 20019AA  21297.76808726  .00000407  00000-0  46260-4 0  9994","RCS_SIZE":"LARGE","PERIOD":"95.593","NORAD_CAT_ID":"45384","PERIAPSIS":"546.065","OBJECT_TYPE":"PAYLOAD","MEAN_MOTION_DDOT":"0.0000000000000","SITE":"AFETR","FILE":"3182768","REF_FRAME":"TEME","DECAY_DATE":null,"SEMIMAJOR_AXIS":"6925.406","RA_OF_ASC_NODE":"115.4678","ELEMENT_SET_NO":"999","ECCENTRICITY":"0.00017410","TIME_SYSTEM":"UTC","ARG_OF_PERICENTER":"85.3120","MEAN_MOTION_DOT":"0.00000407","COUNTRY_CODE":"US","GP_ID":"188103521","CLASSIFICATION_TYPE":"U","MEAN_ANOMALY":"274.8068","TLE_LINE2":"2 45384  53.0548 115.4678 0001741  85.3120 274.8068 15.06381384 89310","OBJECT_ID":"2020-019AA","MEAN_ELEMENT_THEORY":"SGP4","EPHEMERIS_TYPE":"0","CENTER_NAME":"EARTH","APOAPSIS":"548.476","BSTAR":"0.00004626000000","LAUNCH_DATE":"2020-03-18","REV_AT_EPOCH":"8931","EPOCH":"2021-10-24T18:26:02.739264","MEAN_MOTION":"15.06381384"},{"REV_AT_EPOCH":"8931","MEAN_MOTION":"15.06394020","EPOCH":"2021-10-24T18:31:21.372960","EPHEMERIS_TYPE":"0","CENTER_NAME":"EARTH","TLE_LINE2":"2 45386  53.0540 115.4709 0001278  83.8798 276.2336 15.06394020 89313","OBJECT_ID":"2020-019AC","MEAN_ELEMENT_THEORY":"SGP4","MEAN_MOTION_DOT":"0.00000926","ARG_OF_PERICENTER":"83.8798","MEAN_ANOMALY":"276.2336","GP_ID":"188103772","COUNTRY_CODE":"US","CLASSIFICATION_TYPE":"U","TIME_SYSTEM":"UTC","LAUNCH_DATE":"2020-03-18","BSTAR":"0.00008107300000","APOAPSIS":"548.117","OBJECT_TYPE":"PAYLOAD","ECCENTRICITY":"0.00012780","SEMIMAJOR_AXIS":"6925.367","RA_OF_ASC_NODE":"115.4709","ELEMENT_SET_NO":"999","FILE":"3182768","REF_FRAME":"TEME","DECAY_DATE":null,"MEAN_MOTION_DDOT":"0.0000000000000","SITE":"AFETR","TLE_LINE1":"1 45386U 20019AC  21297.77177515  .00000926  00000-0  81073-4 0  9999","OBJECT_NAME":"STARLINK-1272","INCLINATION":"53.0540","PERIAPSIS":"546.347","PERIOD":"95.593","NORAD_CAT_ID":"45386","RCS_SIZE":"LARGE"}];
